{"type": "FeatureCollection", "features": [ {"type": "Feature", "properties": {"norad_id": 66326, "name": "STARLINK-35479", "group": "last-30-days", "lat": 38.32049906339893, "lon": 155.1494662228385, "alt_km": 409.8972702782239, "timestamp": "2025-12-04T10:51:48.874181+00:00", "meta": {"OBJECT_NAME": "STARLINK-35479", "OBJECT_ID": "2025-253H", "EPOCH": "2025-12-04T02:38:33.362304", "MEAN_MOTION": 15.50609566, "ECCENTRICITY": 0.0003021, "INCLINATION": 42.9999, "RA_OF_ASC_NODE": 35.1636, "ARG_OF_PERICENTER": 246.087, "MEAN_ANOMALY": 113.9673, "EPHEMERIS_TYPE": 0, "CLASSIFICATION_TYPE": "U", "NORAD_CAT_ID": 66326, "ELEMENT_SET_NO": 999, "REV_AT_EPOCH": 559, "BSTAR": 0.003071, "MEAN_MOTION_DOT": 0.00184335, "MEAN_MOTION_DDOT": 0}, "tle": {"line1": "1 66326U 25253H   25338.11010836  .00184335  00000+0  30710-2 0  9997", "line2": "2 66326  42.9999  35.1636 0003021 246.0870 113.9673 15.50609566  5596"}}, "geometry": {"type": "Point", "coordinates": [155.1494662228385, 38.32049906339893]}}, {"type": "Feature", "properties": {"norad_id": 66327, "name": "STARLINK-35507", "group": "last-30-days", "lat": 40.97484089980771, "lon": 144.43461041787435, "alt_km": 409.6158635570664, "timestamp": "2025-12-04T10:51:48.874195+00:00", "meta": {"OBJECT_NAME": "STARLINK-35507", "OBJECT_ID": "2025-253J", "EPOCH": "2025-12-04T04:13:46.844832", "MEAN_MOTION": 15.51574581, "ECCENTRICITY": 0.0007508, "INCLINATION": 43.0006, "RA_OF_ASC_NODE": 34.8059, "ARG_OF_PERICENTER": 257.8373, "MEAN_ANOMALY": 102.1647, "EPHEMERIS_TYPE": 0, "CLASSIFICATION_TYPE": "U", "NORAD_CAT_ID": 66327, "ELEMENT_SET_NO": 999, "REV_AT_EPOCH": 560, "BSTAR": 0.0056023, "MEAN_MOTION_DOT": 0.00356348, "MEAN_MOTION_DDOT": 0}, "tle": {"line1": "1 66327U 25253J   25338.17623663  .00356348  00000+0  56023-2 0  9992", "line2": "2 66327  43.0006  34.8059 0007508 257.8373 102.1647 15.51574581  5607"}}, "geometry": {"type": "Point", "coordinates": [144.43461041787435, 40.97484089980771]}}, {"type": "Feature", "properties": {"norad_id": 66328, "name": "STARLINK-35460", "group": "last-30-days", "lat": 35.421118701937736, "lon": 83.04421188998282, "alt_km": 439.4021002384852, "timestamp": "2025-12-04T10:51:48.874207+00:00", "meta": {"OBJECT_NAME": "STARLINK-35460", "OBJECT_ID": "2025-253K", "EPOCH": "2025-12-04T04:00:03.000096", "MEAN_MOTION": 15.40691886, "ECCENTRICITY": 0.0001428, "INCLINATION": 43.0004, "RA_OF_ASC_NODE": 34.9436, "ARG_OF_PERICENTER": 258.0946, "MEAN_ANOMALY": 12.2909, "EPHEMERIS_TYPE": 0, "CLASSIFICATION_TYPE": "U", "NORAD_CAT_ID": 66328, "ELEMENT_SET_NO": 999, "REV_AT_EPOCH": 564, "BSTAR": -0.0010136, "MEAN_MOTION_DOT": -0.00042398, "MEAN_MOTION_DDOT": 0}, "tle": {"line1": "1 66328U 25253K   25338.16670139 -.00042398  00000+0 -10136-2 0  9996", "line2": "2 66328  43.0004  34.9436 0001428 258.0946  12.2909 15.40691886  5642"}}, "geometry": {"type": "Point", "coordinates": [83.04421188998282, 35.421118701937736]}}, {"type": "Feature", "properties": {"norad_id": 66329, "name": "STARLINK-35505", "group": "last-30-days", "lat": 41.873281891099346, "lon": 139.04510710291484, "alt_km": 409.01502039911884, "timestamp": "2025-12-04T10:51:48.874220+00:00", "meta": {"OBJECT_NAME": "STARLINK-35505", "OBJECT_ID": "2025-253L", "EPOCH": "2025-12-03T12:47:11.075712", "MEAN_MOTION": 15.50665124, "ECCENTRICITY": 0.00023019, "INCLINATION": 43, "RA_OF_ASC_NODE": 38.5759, "ARG_OF_PERICENTER": 270.1873, "MEAN_ANOMALY": 89.8723, "EPHEMERIS_TYPE": 0, "CLASSIFICATION_TYPE": "U", "NORAD_CAT_ID": 66329, "ELEMENT_SET_NO": 999, "REV_AT_EPOCH": 550, "BSTAR": 0.0020206657, "MEAN_MOTION_DOT": 0.00120414, "MEAN_MOTION_DDOT": 0}, "tle": {"line1": "1 66329U 25253L   25337.53276708  .00120414  00000+0  20207-2 0  9995", "line2": "2 66329  43.0000  38.5759 0002301 270.1873  89.8723 15.50665124  5508"}}, "geometry": {"type": "Point", "coordinates": [139.04510710291484, 41.873281891099346]}}, {"type": "Feature", "properties": {"norad_id": 66330, "name": "STARLINK-35512", "group": "last-30-days", "lat": -11.10449864305985, "lon": 21.320237568301287, "alt_km": 445.30609599714353, "timestamp": "2025-12-04T10:51:48.874231+00:00", "meta": {"OBJECT_NAME": "STARLINK-35512", "OBJECT_ID": "2025-253M", "EPOCH": "2025-12-04T04:00:03.000096", "MEAN_MOTION": 15.40708771, "ECCENTRICITY": 9.67e-05, "INCLINATION": 43.0005, "RA_OF_ASC_NODE": 35.1273, "ARG_OF_PERICENTER": 242.0826, "MEAN_ANOMALY": 313.6867, "EPHEMERIS_TYPE": 0, "CLASSIFICATION_TYPE": "U", "NORAD_CAT_ID": 66330, "ELEMENT_SET_NO": 999, "REV_AT_EPOCH": 555, "BSTAR": -0.0011664, "MEAN_MOTION_DOT": -0.0004873, "MEAN_MOTION_DDOT": 0}, "tle": {"line1": "1 66330U 25253M   25338.16670139 -.00048730  00000+0 -11664-2 0  9992", "line2": "2 66330  43.0005  35.1273 0000967 242.0826 313.6867 15.40708771  5558"}}, "geometry": {"type": "Point", "coordinates": [21.320237568301287, -11.10449864305985]}}, {"type": "Feature", "properties": {"norad_id": 66331, "name": "STARLINK-35257", "group": "last-30-days", "lat": 33.245510215958646, "lon": 168.42265128894124, "alt_km": 410.19587783938096, "timestamp": "2025-12-04T10:51:48.874242+00:00", "meta": {"OBJECT_NAME": "STARLINK-35257", "OBJECT_ID": "2025-253N", "EPOCH": "2025-12-03T12:40:46.235424", "MEAN_MOTION": 15.50612497, "ECCENTRICITY": 0.00017622, "INCLINATION": 42.9995, "RA_OF_ASC_NODE": 38.5379, "ARG_OF_PERICENTER": 289.6299, "MEAN_ANOMALY": 70.4371, "EPHEMERIS_TYPE": 0, "CLASSIFICATION_TYPE": "U", "NORAD_CAT_ID": 66331, "ELEMENT_SET_NO": 999, "REV_AT_EPOCH": 550, "BSTAR": 0.0018759457, "MEAN_MOTION_DOT": 0.00111424, "MEAN_MOTION_DDOT": 0}, "tle": {"line1": "1 66331U 25253N   25337.52831291  .00111424  00000+0  18759-2 0  9991", "line2": "2 66331  42.9995  38.5379 0001762 289.6299  70.4371 15.50612497  5507"}}, "geometry": {"type": "Point", "coordinates": [168.42265128894124, 33.245510215958646]}}, {"type": "Feature", "properties": {"norad_id": 66332, "name": "STARLINK-35322", "group": "last-30-days", "lat": 41.351088791117434, "lon": 104.07008886002801, "alt_km": 429.38099207568393, "timestamp": "2025-12-04T10:51:48.874253+00:00", "meta": {"OBJECT_NAME": "STARLINK-35322", "OBJECT_ID": "2025-253P", "EPOCH": "2025-12-03T15:54:04.667328", "MEAN_MOTION": 15.43882577, "ECCENTRICITY": 0.0001814, "INCLINATION": 42.9998, "RA_OF_ASC_NODE": 37.8272, "ARG_OF_PERICENTER": 5.7146, "MEAN_ANOMALY": 354.3732, "EPHEMERIS_TYPE": 0, "CLASSIFICATION_TYPE": "U", "NORAD_CAT_ID": 66332, "ELEMENT_SET_NO": 999, "REV_AT_EPOCH": 552, "BSTAR": -0.0089578, "MEAN_MOTION_DOT": -0.00395993, "MEAN_MOTION_DDOT": 0}, "tle": {"line1": "1 66332U 25253P   25337.66255402 -.00395993  00000+0 -89578-2 0  9995", "line2": "2 66332  42.9998  37.8272 0001814   5.7146 354.3732 15.43882577  5528"}}, "geometry": {"type": "Point", "coordinates": [104.07008886002801, 41.351088791117434]}}, {"type": "Feature", "properties": {"norad_id": 66333, "name": "STARLINK-35400", "group": "last-30-days", "lat": 34.121442652392, "lon": 166.48851097781588, "alt_km": 410.14196849185464, "timestamp": "2025-12-04T10:51:48.874281+00:00", "meta": {"OBJECT_NAME": "STARLINK-35400", "OBJECT_ID": "2025-253Q", "EPOCH": "2025-12-03T12:41:15.457632", "MEAN_MOTION": 15.50633816, "ECCENTRICITY": 0.0002479, "INCLINATION": 43.0028, "RA_OF_ASC_NODE": 38.5379, "ARG_OF_PERICENTER": 261.0989, "MEAN_ANOMALY": 98.959, "EPHEMERIS_TYPE": 0, "CLASSIFICATION_TYPE": "U", "NORAD_CAT_ID": 66333, "ELEMENT_SET_NO": 999, "REV_AT_EPOCH": 550, "BSTAR": 0.0019355, "MEAN_MOTION_DOT": 0.00115116, "MEAN_MOTION_DDOT": 0}, "tle": {"line1": "1 66333U 25253Q   25337.52865113  .00115116  00000+0  19355-2 0  9998", "line2": "2 66333  43.0028  38.5379 0002479 261.0989  98.9590 15.50633816  5500"}}, "geometry": {"type": "Point", "coordinates": [166.48851097781588, 34.121442652392]}}, {"type": "Feature", "properties": {"norad_id": 66334, "name": "STARLINK-35407", "group": "last-30-days", "lat": 14.189017161292341, "lon": 49.13193364314518, "alt_km": 441.33849690714214, "timestamp": "2025-12-04T10:51:48.874293+00:00", "meta": {"OBJECT_NAME": "STARLINK-35407", "OBJECT_ID": "2025-253R", "EPOCH": "2025-12-04T04:32:58.300224", "MEAN_MOTION": 15.40796899, "ECCENTRICITY": 6.11e-05, "INCLINATION": 42.9992, "RA_OF_ASC_NODE": 34.9051, "ARG_OF_PERICENTER": 285.6311, "MEAN_ANOMALY": 74.4478, "EPHEMERIS_TYPE": 0, "CLASSIFICATION_TYPE": "U", "NORAD_CAT_ID": 66334, "ELEMENT_SET_NO": 999, "REV_AT_EPOCH": 560, "BSTAR": 0.0029412, "MEAN_MOTION_DOT": 0.00124991, "MEAN_MOTION_DDOT": 0}, "tle": {"line1": "1 66334U 25253R   25338.18956366  .00124991  00000+0  29412-2 0  9999", "line2": "2 66334  42.9992  34.9051 0000611 285.6311  74.4478 15.40796899  5608"}}, "geometry": {"type": "Point", "coordinates": [49.13193364314518, 14.189017161292341]}}, {"type": "Feature", "properties": {"norad_id": 66335, "name": "STARLINK-35417", "group": "last-30-days", "lat": -33.333170605422836, "lon": -11.325284316159324, "alt_km": 446.4056270904757, "timestamp": "2025-12-04T10:51:48.874304+00:00", "meta": {"OBJECT_NAME": "STARLINK-35417", "OBJECT_ID": "2025-253S", "EPOCH": "2025-12-04T00:00:02.000160", "MEAN_MOTION": 15.40725454, "ECCENTRICITY": 0.0001523, "INCLINATION": 43.0009, "RA_OF_ASC_NODE": 36.1763, "ARG_OF_PERICENTER": 254.3794, "MEAN_ANOMALY": 58.4875, "EPHEMERIS_TYPE": 0, "CLASSIFICATION_TYPE": "U", "NORAD_CAT_ID": 66335, "ELEMENT_SET_NO": 999, "REV_AT_EPOCH": 552, "BSTAR": -0.0019018, "MEAN_MOTION_DOT": -0.00078998, "MEAN_MOTION_DDOT": 0}, "tle": {"line1": "1 66335U 25253S   25338.00002315 -.00078998  00000+0 -19018-2 0  9995", "line2": "2 66335  43.0009  36.1763 0001523 254.3794  58.4875 15.40725454  5528"}}, "geometry": {"type": "Point", "coordinates": [-11.325284316159324, -33.333170605422836]}}]}